OBJECT_NAME,OBJECT_ID,EPOCH,MEAN_MOTION,ECCENTRICITY,INCLINATION,RA_OF_ASC_NODE,ARG_OF_PERICENTER,MEAN_ANOMALY,EPHEMERIS_TYPE,CLASSIFICATION_TYPE,NORAD_CAT_ID,ELEMENT_SET_NO,REV_AT_EPOCH,BSTAR,MEAN_MOTION_DOT,MEAN_MOTION_DDOT
ONEWEB-0230,2021-045C,2026-06-06T12:24:04.546656,13.15547952,.00020796,87.9000,261.3297,96.9824,263.1543,0,U,48769,999,24326,.437292E-3,.177E-5,0
ONEWEB-0237,2021-045D,2026-06-06T13:57:36.276768,13.15551057,.000167,87.8999,261.3186,98.4692,261.6628,0,U,48770,999,24299,.58538E-3,.233E-5,0
ONEWEB-0235,2021-045E,2026-06-06T13:21:07.208352,13.15547855,.0001511,87.9008,261.3084,102.3208,257.8091,0,U,48771,999,24298,-.22257E-3,-.71E-6,0
ONEWEB-0242,2021-045F,2026-06-06T13:11:59.839296,13.15548531,.0001806,87.9011,261.3062,96.4502,263.6834,0,U,48772,999,24302,.3307E-4,.25E-6,0
ONEWEB-0241,2021-045G,2026-06-06T12:53:44.841120,13.15547962,.0001615,87.9000,261.3281,110.6443,249.4860,0,U,48773,999,24293,-.20103E-3,-.63E-6,0
ONEWEB-0243,2021-045H,2026-06-06T13:39:22.349088,13.15548318,.0001607,87.9000,261.3341,87.4277,272.7038,0,U,48774,999,24296,.30681E-3,.128E-5,0
ONEWEB-0222,2021-045J,2026-06-06T13:15:24.667776,13.15548477,.0001718,87.9014,261.3044,103.9289,256.2032,0,U,48775,999,24300,-.11923E-3,-.32E-6,0
ONEWEB-0244,2021-045K,2026-06-06T13:53:03.796224,13.15548381,.0001784,87.9014,261.2931,99.5858,260.5474,0,U,48776,999,24357,.41052E-3,.167E-5,0
ONEWEB-0247,2021-045L,2026-06-06T13:48:28.785888,13.15546732,.0001166,87.9001,261.3275,86.6942,273.4322,0,U,48777,999,24301,.45719E-3,.185E-5,0
ONEWEB-0245,2021-045M,2026-06-06T13:41:38.743584,13.15550215,.0001861,87.9006,261.3069,105.6903,254.4433,0,U,48778,999,24298,-.24672E-3,-.8E-6,0
ONEWEB-0229,2021-045N,2026-06-06T13:34:48.440352,13.15548246,.0001867,87.9009,261.3054,97.2262,262.9080,0,U,48779,999,24301,.12586E-3,.6E-6,0
ONEWEB-0228,2021-045P,2026-06-06T12:33:22.744224,13.15550909,.00017965,87.9016,261.3058,101.2493,258.8839,0,U,48780,999,24292,.14091189E-3,.66E-6,0
ONEWEB-0232,2021-045Q,2026-06-06T13:46:12.730080,13.15550349,.0001915,87.9011,261.2972,103.3033,256.8311,0,U,48781,999,24325,.32559E-3,.135E-5,0
ONEWEB-0231,2021-045R,2026-06-06T13:14:15.807840,13.15548700,.0001696,87.9006,261.3154,102.7970,257.3349,0,U,48782,999,24294,-.14444E-3,-.42E-6,0
ONEWEB-0234,2021-045S,2026-06-05T19:53:36.805344,13.15548179,.00024454,87.9007,261.4403,117.9807,242.1571,0,U,48783,999,24298,.99567167E-4,.5E-6,0
ONEWEB-0238,2021-045T,2026-06-05T19:53:59.859456,13.15550285,.00022207,87.9017,261.4346,111.0955,249.0413,0,U,48784,999,24288,.22965235E-3,.99E-6,0
ONEWEB-0240,2021-045U,2026-06-06T12:50:17.677248,13.15548636,.0001683,87.9023,261.3039,108.9451,251.1861,0,U,48785,999,24300,-.62561E-3,-.223E-5,0
ONEWEB-0246,2021-045V,2026-06-05T20:16:37.879968,13.15549005,.00018453,87.9005,261.4459,97.1824,262.9516,0,U,48786,999,24278,-.48027404E-4,-.5E-7,0
ONEWEB-0210,2021-045W,2026-06-06T13:55:20.472384,13.15550123,.0001384,87.9013,261.2970,76.5975,283.5310,0,U,48787,999,24292,.31473E-3,.131E-5,0
ONEWEB-0214,2021-045X,2026-06-06T14:07:53.461344,13.15548700,.0001949,87.9012,261.2918,89.4759,270.6594,0,U,48788,999,24289,.62329E-3,.247E-5,0
ONEWEB-0221,2021-045Y,2026-06-06T12:28:38.127936,13.15548352,.00018058,87.9012,261.3142,102.5539,257.5793,0,U,48789,999,24297,.51375843E-3,.206E-5,0
ONEWEB-0213,2021-045Z,2026-06-06T14:02:09.775968,13.15551023,.0001683,87.9010,261.3047,98.3294,261.8027,0,U,48790,999,24304,.64294E-3,.255E-5,0
ONEWEB-0212,2021-045AA,2026-06-06T13:29:06.649728,13.15549162,.0001933,87.9008,261.3037,102.0802,258.0545,0,U,48791,999,24303,.93206E-4,.48E-6,0
ONEWEB-0227,2021-045AB,2026-06-06T13:27:58.110336,13.15548492,.00019,87.9006,261.3048,102.0768,258.0575,0,U,48792,999,24298,-.16358E-3,-.49E-6,0
ONEWEB-0226,2021-045AC,2026-06-06T13:18:50.020704,13.15549960,.0001722,87.9003,261.3111,95.8884,264.2443,0,U,48793,999,24295,-.18438E-3,-.57E-6,0
ONEWEB-0224,2021-045AD,2026-06-06T12:26:20.085792,13.15550955,.00019674,87.9001,261.3526,127.0022,233.1288,0,U,48794,999,24287,.47430145E-3,.191E-5,0
ONEWEB-0233,2021-045AE,2026-06-06T14:22:31.318176,13.15547863,.0001707,87.9000,261.3436,107.5447,252.5870,0,U,48795,999,24290,.23091E-3,.1E-5,0
ONEWEB-0190,2021-045AF,2026-06-06T14:04:26.569632,13.15551337,.0001215,87.9000,261.3084,98.3482,261.7786,0,U,48796,999,24297,.61682E-3,.245E-5,0
ONEWEB-0236,2021-045AG,2026-06-06T12:40:02.771904,13.15548011,.00020462,87.9000,261.3300,103.6251,256.5107,0,U,48797,999,24285,.68829282E-4,.39E-6,0
ONEWEB-0248,2021-045AH,2026-06-06T12:58:16.709088,13.15547378,.0001504,87.9011,261.3098,110.5890,249.5402,0,U,48798,999,24301,-.18643E-3,-.57E-6,0
